OBJECT_NAME,OBJECT_ID,EPOCH,MEAN_MOTION,ECCENTRICITY,INCLINATION,RA_OF_ASC_NODE,ARG_OF_PERICENTER,MEAN_ANOMALY,EPHEMERIS_TYPE,CLASSIFICATION_TYPE,NORAD_CAT_ID,ELEMENT_SET_NO,REV_AT_EPOCH,BSTAR,MEAN_MOTION_DOT,MEAN_MOTION_DDOT
ONEWEB-0365,2021-090N,2026-06-15T08:48:37.639584,13.19724905,.00018031,87.9175,305.3289,100.8203,259.3132,0,U,49291,999,22618,.96800134E-4,.52E-6,0
ONEWEB-0366,2021-090P,2026-06-15T09:08:13.165152,13.14503043,.00019543,87.8961,290.0666,100.4494,259.6856,0,U,49292,999,22732,-.22309629E-3,-.7E-6,0
ONEWEB-0367,2021-090Q,2026-06-15T13:44:04.843392,13.20770592,.00018998,87.9197,274.7622,105.3445,254.7899,0,U,49293,999,22961,.3564425E-3,.158E-5,0
ONEWEB-0368,2021-090R,2026-06-15T13:06:28.832256,13.20770811,.0001458,87.9183,274.7779,83.1429,276.9870,0,U,49294,999,23076,.21512868E-3,.1E-5,0
ONEWEB-0369,2021-090S,2026-06-15T10:30:59.158944,13.19724450,.00017812,87.9167,305.3226,97.8762,262.2573,0,U,49295,999,22618,-.25132894E-3,-.88E-6,0
ONEWEB-0370,2021-090T,2026-06-15T13:57:23.671008,13.20770929,.00021664,87.9195,274.7600,105.7049,254.4323,0,U,49296,999,22965,.94795384E-4,.52E-6,0
ONEWEB-0371,2021-090U,2026-06-15T10:42:20.891232,13.19724552,.00018544,87.9172,305.3132,102.6213,257.5127,0,U,49297,999,22622,-.2853261E-5,.12E-6,0
ONEWEB-0372,2021-090V,2026-06-15T13:42:38.871936,13.20771949,.00019635,87.9196,274.7637,101.1760,258.9594,0,U,49298,999,22962,.19541061E-3,.92E-6,0
ONEWEB-0373,2021-090W,2026-06-15T14:19:13.272960,13.20771242,.00020711,87.9192,274.7591,100.3786,259.7581,0,U,49299,999,23081,-.99262145E-4,-.27E-6,0
ONEWEB-0374,2021-090X,2026-06-15T14:18:46.874304,13.14502781,.00021781,87.8967,290.0143,85.2691,274.8688,0,U,49300,999,22735,-.68091559E-3,-.24E-5,0
ONEWEB-0375,2021-090Y,2026-06-15T14:02:15.525888,13.20771491,.00023081,87.9195,274.7531,87.7238,272.4159,0,U,49301,999,23031,-.1102924E-3,-.32E-6,0
ONEWEB-0376,2021-090Z,2026-06-15T08:50:53.864736,13.19725049,.00016792,87.9175,305.3285,101.1277,259.0045,0,U,49302,999,22621,-.7798624E-5,.1E-6,0
ONEWEB-0377,2021-090AA,2026-06-15T13:43:00.719904,13.20763904,.0003051,87.9221,274.7531,105.6909,254.4561,0,U,49303,999,23030,-.5029794E-2,-.2031E-4,0
ONEWEB-0378,2021-090AB,2026-06-15T14:12:08.358624,13.20770924,.00019631,87.9189,274.7587,95.9923,264.1434,0,U,49304,999,22957,.6339963E-4,.39E-6,0
ONEWEB-0379,2021-090AC,2026-06-15T08:43:05.694240,13.14502813,.00019111,87.8965,290.0713,96.3679,263.7668,0,U,49305,999,22732,-.35677799E-3,-.119E-5,0
ONEWEB-0380,2021-090AD,2026-06-15T10:35:32.321184,13.19724826,.00020588,87.9169,305.3193,97.2545,262.8822,0,U,49306,999,22619,-.10137249E-3,-.28E-6,0
ONEWEB-0381,2021-090AE,2026-06-15T13:38:00.878208,13.20771908,.00021007,87.9196,274.7630,93.0702,267.0672,0,U,49307,999,22961,.18572275E-3,.89E-6,0
ONEWEB-0382,2021-090AF,2026-06-15T13:18:36.111168,13.20770658,.00020147,87.9194,274.7601,91.7301,268.4063,0,U,49308,999,22960,.29175974E-3,.132E-5,0
ONEWEB-0383,2021-090AG,2026-06-15T14:02:46.370688,13.14501745,.00018435,87.8969,290.0184,95.3061,264.8279,0,U,49309,999,22738,.683E-4,.38E-6,0
ONEWEB-0384,2021-090AH,2026-06-15T13:02:19.524192,13.20812642,.00019798,87.9196,274.8059,86.6863,273.4497,0,U,49310,999,22961,.16935965E-3,.82E-6,0
ONEWEB-0385,2021-090AJ,2026-06-15T13:08:55.294080,13.20773119,.00019995,87.9194,274.7666,94.2955,265.8407,0,U,49311,999,22958,.17234712E-3,.83E-6,0
ONEWEB-0386,2021-090AK,2026-06-15T08:05:53.846592,13.20771961,.00019445,87.9198,274.7994,92.8896,267.2460,0,U,49312,999,22957,.14295058E-3,.71E-6,0
ONEWEB-0387,2021-090AL,2026-06-15T13:11:20.885856,13.20771752,.00023257,87.9184,274.7796,96.4818,263.6580,0,U,49313,999,22960,.78011355E-4,.45E-6,0
ONEWEB-0388,2021-090AM,2026-06-15T10:28:42.914784,13.19724809,.00018813,87.9167,305.3183,94.2115,265.9233,0,U,49314,999,22618,-.10124985E-4,.9E-7,0
ONEWEB-0389,2021-132A,2026-06-15T14:29:50.589600,13.17648273,.00021572,87.9131,6.1832,82.8589,277.2788,0,U,50469,999,21787,.17964285E-3,.83E-6,0
ONEWEB-0390,2021-132B,2026-06-15T14:32:16.372320,13.17648466,.00019671,87.9132,6.1837,94.1602,265.9755,0,U,50470,999,21787,.10381542E-3,.53E-6,0
ONEWEB-0391,2021-132C,2026-06-15T12:45:21.363264,13.17648497,.00026895,87.9133,6.2081,86.2967,273.8472,0,U,50471,999,21786,.79141642E-4,.44E-6,0
ONEWEB-0392,2021-132D,2026-06-15T13:29:06.329184,13.17649304,.00022128,87.9142,6.1702,83.6150,276.5233,0,U,50472,999,21790,.21351823E-3,.96E-6,0
ONEWEB-0393,2021-132E,2026-06-15T14:43:12.464544,13.17649834,.00020036,87.9134,6.1773,85.5123,274.6237,0,U,50473,999,21790,.12254845E-3,.6E-6,0
ONEWEB-0394,2021-132F,2026-06-15T12:06:47.580768,13.18682084,.00018081,87.9172,335.7767,86.8676,273.2663,0,U,50474,999,22137,.26090457E-2,.1042E-4,0
