ONEWEB-0365             
1 49291U 21090N   26166.36710231  .00000052  00000+0  96800-4 0  9994
2 49291  87.9175 305.3289 0001803 100.8203 259.3132 13.19724905226185
ONEWEB-0366             
1 49292U 21090P   26166.38070793 -.00000070  00000+0 -22310-3 0  9995
2 49292  87.8961 290.0666 0001954 100.4494 259.6856 13.14503043227328
ONEWEB-0367             
1 49293U 21090Q   26166.57227828  .00000158  00000+0  35644-3 0  9999
2 49293  87.9197 274.7622 0001899 105.3445 254.7899 13.20770592229619
ONEWEB-0368             
1 49294U 21090R   26166.54616704  .00000100  00000+0  21513-3 0  9999
2 49294  87.9183 274.7779 0001458  83.1429 276.9870 13.20770811230761
ONEWEB-0369             
1 49295U 21090S   26166.43818471 -.00000088  00000+0 -25133-3 0  9992
2 49295  87.9167 305.3226 0001781  97.8762 262.2573 13.19724450226188
ONEWEB-0370             
1 49296U 21090T   26166.58152397  .00000052  00000+0  94795-4 0  9997
2 49296  87.9195 274.7600 0002166 105.7049 254.4323 13.20770929229655
ONEWEB-0371             
1 49297U 21090U   26166.44607513  .00000012  00000+0 -28533-5 0  9993
2 49297  87.9172 305.3132 0001854 102.6213 257.5127 13.19724552226229
ONEWEB-0372             
1 49298U 21090V   26166.57128324  .00000092  00000+0  19541-3 0  9990
2 49298  87.9196 274.7637 0001963 101.1760 258.9594 13.20771949229621
ONEWEB-0373             
1 49299U 21090W   26166.59668140 -.00000027  00000+0 -99262-4 0  9997
2 49299  87.9192 274.7591 0002071 100.3786 259.7581 13.20771242230811
ONEWEB-0374             
1 49300U 21090X   26166.59637586 -.00000240  00000+0 -68092-3 0  9993
2 49300  87.8967 290.0143 0002178  85.2691 274.8688 13.14502781227355
ONEWEB-0375             
1 49301U 21090Y   26166.58490192 -.00000032  00000+0 -11029-3 0  9990
2 49301  87.9195 274.7531 0002308  87.7238 272.4159 13.20771491230319
ONEWEB-0376             
1 49302U 21090Z   26166.36867899  .00000010  00000+0 -77986-5 0  9990
2 49302  87.9175 305.3285 0001679 101.1277 259.0045 13.19725049226214
ONEWEB-0377             
1 49303U 21090AA  26166.57153611 -.00002031  00000+0 -50298-2 0  9994
2 49303  87.9221 274.7531 0003051 105.6909 254.4561 13.20763904230308
ONEWEB-0378             
1 49304U 21090AB  26166.59176341  .00000039  00000+0  63400-4 0  9997
2 49304  87.9189 274.7587 0001963  95.9923 264.1434 13.20770924229574
ONEWEB-0379             
1 49305U 21090AC  26166.36326035 -.00000119  00000+0 -35678-3 0  9996
2 49305  87.8965 290.0713 0001911  96.3679 263.7668 13.14502813227322
ONEWEB-0380             
1 49306U 21090AD  26166.44134631 -.00000028  00000+0 -10137-3 0  9997
2 49306  87.9169 305.3193 0002058  97.2545 262.8822 13.19724826226198
ONEWEB-0381             
1 49307U 21090AE  26166.56806572  .00000089  00000+0  18572-3 0  9997
2 49307  87.9196 274.7630 0002100  93.0702 267.0672 13.20771908229616
ONEWEB-0382             
1 49308U 21090AF  26166.55458462  .00000132  00000+0  29176-3 0  9999
2 49308  87.9194 274.7601 0002014  91.7301 268.4063 13.20770658229606
ONEWEB-0383             
1 49309U 21090AG  26166.58525892  .00000038  00000+0  68300-4 0  9993
2 49309  87.8969 290.0184 0001843  95.3061 264.8279 13.14501745227389
ONEWEB-0384             
1 49310U 21090AH  26166.54328153  .00000082  00000+0  16936-3 0  9998
2 49310  87.9196 274.8059 0001979  86.6863 273.4497 13.20812642229612
ONEWEB-0385             
1 49311U 21090AJ  26166.54786220  .00000083  00000+0  17235-3 0  9996
2 49311  87.9194 274.7666 0001999  94.2955 265.8407 13.20773119229580
ONEWEB-0386             
1 49312U 21090AK  26166.33742878  .00000071  00000+0  14295-3 0  9995
2 49312  87.9198 274.7994 0001944  92.8896 267.2460 13.20771961229574
ONEWEB-0387             
1 49313U 21090AL  26166.54954729  .00000045  00000+0  78011-4 0  9997
2 49313  87.9184 274.7796 0002325  96.4818 263.6580 13.20771752229603
ONEWEB-0388             
1 49314U 21090AM  26166.43660781  .00000009  00000+0 -10125-4 0  9991
2 49314  87.9167 305.3183 0001881  94.2115 265.9233 13.19724809226187
ONEWEB-0389             
1 50469U 21132A   26166.60405775  .00000083  00000+0  17964-3 0  9998
2 50469  87.9131   6.1832 0002157  82.8589 277.2788 13.17648273217878
ONEWEB-0390             
1 50470U 21132B   26166.60574505  .00000053  00000+0  10382-3 0  9992
2 50470  87.9132   6.1837 0001967  94.1602 265.9755 13.17648466217878
ONEWEB-0391             
1 50471U 21132C   26166.53149726  .00000044  00000+0  79142-4 0  9998
2 50471  87.9133   6.2081 0002689  86.2967 273.8472 13.17648497217867
ONEWEB-0392             
1 50472U 21132D   26166.56187881  .00000096  00000+0  21352-3 0  9992
2 50472  87.9142   6.1702 0002212  83.6150 276.5233 13.17649304217902
ONEWEB-0393             
1 50473U 21132E   26166.61333871  .00000060  00000+0  12255-3 0  9994
2 50473  87.9134   6.1773 0002003  85.5123 274.6237 13.17649834217902
ONEWEB-0394             
1 50474U 21132F   26166.50471737  .00001042  00000+0  26090-2 0  9999
2 50474  87.9172 335.7767 0001808  86.8676 273.2663 13.18682084221377
